[{"OBJECT_NAME":"STARLINK-5018","OBJECT_ID":"2022-119AV","EPOCH":"2025-11-10T18:01:11.019072","MEAN_MOTION":15.08843672,"ECCENTRICITY":0.00013404,"INCLINATION":53.2158,"RA_OF_ASC_NODE":128.4307,"ARG_OF_PERICENTER":93.3597,"MEAN_ANOMALY":266.7549,"EPHEMERIS_TYPE":0,"CLASSIFICATION_TYPE":"U","NORAD_CAT_ID":53929,"ELEMENT_SET_NO":999,"REV_AT_EPOCH":17386,"BSTAR":4.018267e-5,"MEAN_MOTION_DOT":3.52e-6,"MEAN_MOTION_DDOT":0},{"OBJECT_NAME":"STARLINK-5010","OBJECT_ID":"2022-119AW","EPOCH":"2025-11-11T03:38:38.507712","MEAN_MOTION":15.0884985,"ECCENTRICITY":8.264e-5,"INCLINATION":53.2181,"RA_OF_ASC_NODE":115.9995,"ARG_OF_PERICENTER":82.4444,"MEAN_ANOMALY":277.6642,"EPHEMERIS_TYPE":0,"CLASSIFICATION_TYPE":"U","NORAD_CAT_ID":53930,"ELEMENT_SET_NO":999,"REV_AT_EPOCH":17407,"BSTAR":0.00016857412,"MEAN_MOTION_DOT":2.397e-5,"MEAN_MOTION_DDOT":0},{"OBJECT_NAME":"STARLINK-5015","OBJECT_ID":"2022-119AX","EPOCH":"2025-11-11T08:00:03.000384","MEAN_MOTION":15.92420524,"ECCENTRICITY":0.00014674,"INCLINATION":53.208,"RA_OF_ASC_NODE":93.0503,"ARG_OF_PERICENTER":60.358,"MEAN_ANOMALY":265.3032,"EPHEMERIS_TYPE":0,"CLASSIFICATION_TYPE":"U","NORAD_CAT_ID":53931,"ELEMENT_SET_NO":999,"REV_AT_EPOCH":587,"BSTAR":0.0028527539,"MEAN_MOTION_DOT":0.00982527,"MEAN_MOTION_DDOT":0.00042885868},{"OBJECT_NAME":"STARLINK-4772","OBJECT_ID":"2022-119AY","EPOCH":"2025-11-10T20:27:28.706112","MEAN_MOTION":15.08837915,"ECCENTRICITY":0.00015607,"INCLINATION":53.2153,"RA_OF_ASC_NODE":112.6911,"ARG_OF_PERICENTER":89.4895,"MEAN_ANOMALY":270.6276,"EPHEMERIS_TYPE":0,"CLASSIFICATION_TYPE":"U","NORAD_CAT_ID":53932,"ELEMENT_SET_NO":999,"REV_AT_EPOCH":17410,"BSTAR":6.8679726e-5,"MEAN_MOTION_DOT":8.05e-6,"MEAN_MOTION_DDOT":0},{"OBJECT_NAME":"STARLINK-4782","OBJECT_ID":"2022-119AZ","EPOCH":"2025-11-10T21:33:02.070432","MEAN_MOTION":15.08828647,"ECCENTRICITY":0.00010978,"INCLINATION":53.2146,"RA_OF_ASC_NODE":117.2564,"ARG_OF_PERICENTER":109.6988,"MEAN_ANOMALY":250.4122,"EPHEMERIS_TYPE":0,"CLASSIFICATION_TYPE":"U","NORAD_CAT_ID":53933,"ELEMENT_SET_NO":999,"REV_AT_EPOCH":17403,"BSTAR":0.00032097833,"MEAN_MOTION_DOT":4.823e-5,"MEAN_MOTION_DDOT":0},{"OBJECT_NAME":"STARLINK-4775","OBJECT_ID":"2022-119BA","EPOCH":"2025-11-10T20:22:09.770016","MEAN_MOTION":15.08842617,"ECCENTRICITY":0.00014344,"INCLINATION":53.2162,"RA_OF_ASC_NODE":112.6643,"ARG_OF_PERICENTER":90.6798,"MEAN_ANOMALY":269.4359,"EPHEMERIS_TYPE":0,"CLASSIFICATION_TYPE":"U","NORAD_CAT_ID":53934,"ELEMENT_SET_NO":999,"REV_AT_EPOCH":17411,"BSTAR":2.9353169e-5,"MEAN_MOTION_DOT":1.79e-6,"MEAN_MOTION_DDOT":0},{"OBJECT_NAME":"STARLINK-5000","OBJECT_ID":"2022-119BB","EPOCH":"2025-11-10T16:46:11.381376","MEAN_MOTION":15.08849239,"ECCENTRICITY":0.00015588,"INCLINATION":53.2151,"RA_OF_ASC_NODE":103.1683,"ARG_OF_PERICENTER":84.8304,"MEAN_ANOMALY":275.2866,"EPHEMERIS_TYPE":0,"CLASSIFICATION_TYPE":"U","NORAD_CAT_ID":53935,"ELEMENT_SET_NO":999,"REV_AT_EPOCH":17421,"BSTAR":-3.3548309e-5,"MEAN_MOTION_DOT":-8.22e-6,"MEAN_MOTION_DDOT":0},{"OBJECT_NAME":"STARLINK-4791","OBJECT_ID":"2022-119BC","EPOCH":"2025-11-10T10:07:26.011776","MEAN_MOTION":15.08829667,"ECCENTRICITY":0.00010358,"INCLINATION":53.2158,"RA_OF_ASC_NODE":114.2716,"ARG_OF_PERICENTER":98.9893,"MEAN_ANOMALY":261.1216,"EPHEMERIS_TYPE":0,"CLASSIFICATION_TYPE":"U","NORAD_CAT_ID":53936,"ELEMENT_SET_NO":999,"REV_AT_EPOCH":17404,"BSTAR":4.2935112e-5,"MEAN_MOTION_DOT":3.95e-6,"MEAN_MOTION_DDOT":0},{"OBJECT_NAME":"STARLINK-4633","OBJECT_ID":"2022-125A","EPOCH":"2025-11-11T05:03:29.258784","MEAN_MOTION":15.08847705,"ECCENTRICITY":0.00013304,"INCLINATION":53.2185,"RA_OF_ASC_NODE":36.1475,"ARG_OF_PERICENTER":93.0375,"MEAN_ANOMALY":267.0769,"EPHEMERIS_TYPE":0,"CLASSIFICATION_TYPE":"U","NORAD_CAT_ID":53964,"ELEMENT_SET_NO":999,"REV_AT_EPOCH":17143,"BSTAR":8.3129597e-5,"MEAN_MOTION_DOT":1.036e-5,"MEAN_MOTION_DDOT":0},{"OBJECT_NAME":"STARLINK-4578","OBJECT_ID":"2022-125B","EPOCH":"2025-11-11T06:34:57.071424","MEAN_MOTION":15.08839855,"ECCENTRICITY":0.00013306,"INCLINATION":53.2179,"RA_OF_ASC_NODE":35.8328,"ARG_OF_PERICENTER":91.7179,"MEAN_ANOMALY":268.3966,"EPHEMERIS_TYPE":0,"CLASSIFICATION_TYPE":"U","NORAD_CAT_ID":53965,"ELEMENT_SET_NO":999,"REV_AT_EPOCH":17144,"BSTAR":1.1235362e-5,"MEAN_MOTION_DOT":-1.09e-6,"MEAN_MOTION_DDOT":0},{"OBJECT_NAME":"STARLINK-4635","OBJECT_ID":"2022-125C","EPOCH":"2025-11-10T14:34:24.177792","MEAN_MOTION":15.08845889,"ECCENTRICITY":0.00013381,"INCLINATION":53.219,"RA_OF_ASC_NODE":38.7793,"ARG_OF_PERICENTER":91.2113,"MEAN_ANOMALY":268.9033,"EPHEMERIS_TYPE":0,"CLASSIFICATION_TYPE":"U","NORAD_CAT_ID":53966,"ELEMENT_SET_NO":999,"REV_AT_EPOCH":17134,"BSTAR":0.00012725143,"MEAN_MOTION_DOT":1.738e-5,"MEAN_MOTION_DDOT":0},{"OBJECT_NAME":"STARLINK-4634","OBJECT_ID":"2022-125D","EPOCH":"2025-11-11T06:22:59.313792","MEAN_MOTION":15.08828213,"ECCENTRICITY":0.00010148,"INCLINATION":53.2198,"RA_OF_ASC_NODE":35.7838,"ARG_OF_PERICENTER":95.8599,"MEAN_ANOMALY":264.2509,"EPHEMERIS_TYPE":0,"CLASSIFICATION_TYPE":"U","NORAD_CAT_ID":53967,"ELEMENT_SET_NO":999,"REV_AT_EPOCH":17144,"BSTAR":6.9436942e-5,"MEAN_MOTION_DOT":8.17e-6,"MEAN_MOTION_DDOT":0},{"OBJECT_NAME":"STARLINK-4629","OBJECT_ID":"2022-125E","EPOCH":"2025-11-11T06:07:02.407008","MEAN_MOTION":15.0883548,"ECCENTRICITY":0.00012944,"INCLINATION":53.2183,"RA_OF_ASC_NODE":35.714,"ARG_OF_PERICENTER":99.5675,"MEAN_ANOMALY":260.5463,"EPHEMERIS_TYPE":0,"CLASSIFICATION_TYPE":"U","NORAD_CAT_ID":53968,"ELEMENT_SET_NO":999,"REV_AT_EPOCH":17144,"BSTAR":-0.00013884633,"MEAN_MOTION_DOT":-2.497e-5,"MEAN_MOTION_DDOT":0},{"OBJECT_NAME":"STARLINK-4468","OBJECT_ID":"2022-125F","EPOCH":"2025-11-11T06:17:39.201792","MEAN_MOTION":15.08837248,"ECCENTRICITY":0.00011971,"INCLINATION":53.219,"RA_OF_ASC_NODE":35.7605,"ARG_OF_PERICENTER":77.0347,"MEAN_ANOMALY":283.0779,"EPHEMERIS_TYPE":0,"CLASSIFICATION_TYPE":"U","NORAD_CAT_ID":53969,"ELEMENT_SET_NO":999,"REV_AT_EPOCH":17144,"BSTAR":8.8533811e-5,"MEAN_MOTION_DOT":1.121e-5,"MEAN_MOTION_DDOT":0},{"OBJECT_NAME":"STARLINK-4567","OBJECT_ID":"2022-125G","EPOCH":"2025-11-11T06:20:58.265664","MEAN_MOTION":15.08836715,"ECCENTRICITY":0.00016245,"INCLINATION":53.2187,"RA_OF_ASC_NODE":30.7932,"ARG_OF_PERICENTER":97.1932,"MEAN_ANOMALY":262.9245,"EPHEMERIS_TYPE":0,"CLASSIFICATION_TYPE":"U","NORAD_CAT_ID":53970,"ELEMENT_SET_NO":999,"REV_AT_EPOCH":17152,"BSTAR":0.00011459875,"MEAN_MOTION_DOT":1.536e-5,"MEAN_MOTION_DDOT":0},{"OBJECT_NAME":"STARLINK-4639","OBJECT_ID":"2022-125H","EPOCH":"2025-11-11T07:21:19.305216","MEAN_MOTION":15.50674479,"ECCENTRICITY":0.00037889,"INCLINATION":53.2155,"RA_OF_ASC_NODE":0.9451,"ARG_OF_PERICENTER":18.1945,"MEAN_ANOMALY":341.92,"EPHEMERIS_TYPE":0,"CLASSIFICATION_TYPE":"U","NORAD_CAT_ID":53971,"ELEMENT_SET_NO":999,"REV_AT_EPOCH":17194,"BSTAR":0.0016713953,"MEAN_MOTION_DOT":0.00098346,"MEAN_MOTION_DDOT":0}]
