STARLINK-5018           
1 53929U 22119AV  25314.75082198  .00000352  00000+0  40183-4 0  9997
2 53929  53.2158 128.4307 0001340  93.3597 266.7549 15.08843672173861
STARLINK-5010           
1 53930U 22119AW  25315.15183458  .00002397  00000+0  16857-3 0  9996
2 53930  53.2181 115.9995 0000826  82.4444 277.6642 15.08849850174074
STARLINK-5015           
1 53931U 22119AX  25315.33336806  .00982527  42886-3  28528-2 0  9995
2 53931  53.2080  93.0503 0001467  60.3580 265.3032 15.92420524  5876
STARLINK-4772           
1 53932U 22119AY  25314.85241558  .00000805  00000+0  68680-4 0  9994
2 53932  53.2153 112.6911 0001560  89.4895 270.6276 15.08837915174109
STARLINK-4782           
1 53933U 22119AZ  25314.89794063  .00004823  00000+0  32098-3 0  9990
2 53933  53.2146 117.2564 0001097 109.6988 250.4122 15.08828647174030
STARLINK-4775           
1 53934U 22119BA  25314.84872419  .00000179  00000+0  29353-4 0  9999
2 53934  53.2162 112.6643 0001434  90.6798 269.4359 15.08842617174113
STARLINK-5000           
1 53935U 22119BB  25314.69874284 -.00000822  00000+0 -33548-4 0  9993
2 53935  53.2151 103.1683 0001558  84.8304 275.2866 15.08849239174212
STARLINK-4791           
1 53936U 22119BC  25314.42182884  .00000395  00000+0  42935-4 0  9996
2 53936  53.2158 114.2716 0001035  98.9893 261.1216 15.08829667174046
STARLINK-4633           
1 53964U 22125A   25315.21075531  .00001036  00000+0  83130-4 0  9997
2 53964  53.2185  36.1475 0001330  93.0375 267.0769 15.08847705171431
STARLINK-4578           
1 53965U 22125B   25315.27427166 -.00000109  00000+0  11235-4 0  9997
2 53965  53.2179  35.8328 0001330  91.7179 268.3966 15.08839855171446
STARLINK-4635           
1 53966U 22125C   25314.60722428  .00001738  00000+0  12725-3 0  9995
2 53966  53.2190  38.7793 0001338  91.2113 268.9033 15.08845889171343
STARLINK-4634           
1 53967U 22125D   25315.26596428  .00000817  00000+0  69437-4 0  9998
2 53967  53.2198  35.7838 0001014  95.8599 264.2509 15.08828213171448
STARLINK-4629           
1 53968U 22125E   25315.25488897 -.00002497  00000+0 -13885-3 0  9991
2 53968  53.2183  35.7140 0001294  99.5675 260.5463 15.08835480171447
STARLINK-4468           
1 53969U 22125F   25315.26225928  .00001121  00000+0  88534-4 0  9992
2 53969  53.2190  35.7605 0001197  77.0347 283.0779 15.08837248171445
STARLINK-4567           
1 53970U 22125G   25315.26456326  .00001536  00000+0  11460-3 0  9995
2 53970  53.2187  30.7932 0001624  97.1932 262.9245 15.08836715171520
STARLINK-4639           
1 53971U 22125H   25315.30647344  .00098346  00000+0  16714-2 0  9994
2 53971  53.2155   0.9451 0003788  18.1945 341.9200 15.50674479171940
